{
  "norad_id": 65770,
  "name": "KUIPER-00150",
  "history": [
    {
      "epoch": "2026-03-28T22:55:03.886176",
      "apogee_km": 629.6550991526947,
      "perigee_km": 629.1491548277263,
      "latitude_deg": -41.601796635936125,
      "longitude_deg": 128.67098464001901,
      "semi_major_axis_km": 7007.53912699021,
      "eccentricity": 3.61e-05,
      "inclination_deg": 51.9027,
      "raan_deg": 325.4184,
      "arg_perigee_deg": 104.9305,
      "mean_anomaly_deg": 255.1697,
      "mean_motion_rev_day": 14.79975292
    }
  ]
}